{
  "norad_id": 65602,
  "name": "STARLINK-35255",
  "history": [
    {
      "epoch": "2026-03-28T21:50:03.925824",
      "apogee_km": 549.8630169426488,
      "perigee_km": 549.1212064173706,
      "latitude_deg": 84.58850338354569,
      "longitude_deg": 107.53769535990432,
      "semi_major_axis_km": 6927.629111680009,
      "eccentricity": 5.354e-05,
      "inclination_deg": 97.6028,
      "raan_deg": 157.6131,
      "arg_perigee_deg": 129.5487,
      "mean_anomaly_deg": 230.5788,
      "mean_motion_rev_day": 15.05656208
    },
    {
      "epoch": "2026-03-29T04:12:51.787296",
      "apogee_km": 550.0287255047069,
      "perigee_km": 548.8856724618754,
      "latitude_deg": -29.994456428406693,
      "longitude_deg": 133.0575414400082,
      "semi_major_axis_km": 6927.594198983291,
      "eccentricity": 8.25e-05,
      "inclination_deg": 97.6026,
      "raan_deg": 157.8753,
      "arg_perigee_deg": 111.2007,
      "mean_anomaly_deg": 248.9308,
      "mean_motion_rev_day": 15.0566759
    }
  ]
}